ONEWEB-0603             
1 54667U 22166AB  23272.53342890 -.00000031  00000+0 -10760-3 0  9997
2 54667  87.9181  81.4039 0001615 109.1013 251.0296 13.21825297 40477
ONEWEB-0604             
1 54668U 22166AC  23272.52081853  .00000018  00000+0  12079-4 0  9995
2 54668  87.9173  81.4054 0001958 110.2716 249.8629 13.21825099 40430
ONEWEB-0605             
1 54669U 22166AD  23272.51449206 -.00000040  00000+0 -12762-3 0  9990
2 54669  87.9187  81.4278 0001279  98.9475 261.1804 13.21823591 40509
ONEWEB-0606             
1 54670U 22166AE  23272.53657904  .00000016  00000+0  60442-5 0  9991
2 54670  87.9176  81.4121 0001773  77.9873 282.1459 13.21828971 40566
ONEWEB-0607             
1 54671U 22166AF  23272.50186844 -.00000314  00000+0 -79188-3 0  9997
2 54671  87.9170  81.4092 0001642  97.6501 262.4819 13.21825392 40532
ONEWEB-0608             
1 54672U 22166AG  23272.50817568 -.00000135  00000+0 -35883-3 0  9997
2 54672  87.9180  81.4104 0001258 112.7760 247.3506 13.21826999 40547
ONEWEB-0610             
1 54673U 22166AH  23272.48925205  .00000144  00000+0  31652-3 0  9991
2 54673  87.9182  81.4129 0001437 112.6202 247.5084 13.21824135 40448
ONEWEB-0611             
1 54674U 22166AJ  23272.55865071  .00000161  00000+0  35882-3 0  9992
2 54674  87.9177  81.4012 0002083  78.2552 281.8815 13.21824855 40449
